{
  "type": "FeatureCollection",
  "features": [
    {
      "type": "Feature",
      "properties": {
        "norad_id": 66953,
        "name": "HULIANWANG DIGUI 15A",
        "group": "last-30-days",
        "lat": -16.09617788557969,
        "lon": 167.9432228841814,
        "alt_km": 1001.8611709037514,
        "timestamp": "2025-12-10T14:53:35.947903+00:00",
        "meta_object_name": "HULIANWANG DIGUI 15A",
        "meta_object_id": "2025-287A",
        "meta_epoch": "2025-12-10T06:55:20.076384",
        "meta_mean_motion": 13.69073793,
        "meta_eccentricity": 0.00082441,
        "meta_inclination": 86.4956,
        "meta_ra_of_asc_node": 347.0512,
        "meta_arg_of_pericenter": 213.3003,
        "meta_mean_anomaly": 146.7638,
        "meta_ephemeris_type": 0,
        "meta_classification_type": "U",
        "meta_norad_cat_id": 66953,
        "meta_element_set_no": 999,
        "meta_rev_at_epoch": 19,
        "meta_bstar": 9.649594e-06,
        "meta_mean_motion_dot": 2.5e-07,
        "meta_mean_motion_ddot": 0,
        "tle_line1": "1 66953U 25287A   25344.28842681  .00000025  00000+0  96496-5 0  9995",
        "tle_line2": "2 66953  86.4956 347.0512 0008244 213.3003 146.7638 13.69073793   194"
      },
      "geometry": {
        "type": "Point",
        "coordinates": [
          167.9432228841814,
          -16.09617788557969
        ]
      }
    },
    {
      "type": "Feature",
      "properties": {
        "norad_id": 66954,
        "name": "HULIANWANG DIGUI 15B",
        "group": "last-30-days",
        "lat": -16.66620506266917,
        "lon": 167.98249817325055,
        "alt_km": 1001.5809417029641,
        "timestamp": "2025-12-10T14:53:35.947912+00:00",
        "meta_object_name": "HULIANWANG DIGUI 15B",
        "meta_object_id": "2025-287B",
        "meta_epoch": "2025-12-10T06:55:12.116352",
        "meta_mean_motion": 13.69168896,
        "meta_eccentricity": 0.00081807,
        "meta_inclination": 86.4972,
        "meta_ra_of_asc_node": 347.053,
        "meta_arg_of_pericenter": 212.4744,
        "meta_mean_anomaly": 147.5913,
        "meta_ephemeris_type": 0,
        "meta_classification_type": "U",
        "meta_norad_cat_id": 66954,
        "meta_element_set_no": 999,
        "meta_rev_at_epoch": 19,
        "meta_bstar": 9.675889e-06,
        "meta_mean_motion_dot": 2.5e-07,
        "meta_mean_motion_ddot": 0,
        "tle_line1": "1 66954U 25287B   25344.28833468  .00000025  00000+0  96759-5 0  9991",
        "tle_line2": "2 66954  86.4972 347.0530 0008180 212.4744 147.5913 13.69168896   198"
      },
      "geometry": {
        "type": "Point",
        "coordinates": [
          167.98249817325055,
          -16.66620506266917
        ]
      }
    },
    {
      "type": "Feature",
      "properties": {
        "norad_id": 66955,
        "name": "HULIANWANG DIGUI 15C",
        "group": "last-30-days",
        "lat": -17.428456234451588,
        "lon": 168.0249873576561,
        "alt_km": 1001.4655128511331,
        "timestamp": "2025-12-10T14:53:35.947922+00:00",
        "meta_object_name": "HULIANWANG DIGUI 15C",
        "meta_object_id": "2025-287C",
        "meta_epoch": "2025-12-09T09:52:18.926688",
        "meta_mean_motion": 13.69296672,
        "meta_eccentricity": 0.00076324,
        "meta_inclination": 86.4914,
        "meta_ra_of_asc_node": 347.3632,
        "meta_arg_of_pericenter": 209.8722,
        "meta_mean_anomaly": 150.2003,
        "meta_ephemeris_type": 0,
        "meta_classification_type": "U",
        "meta_norad_cat_id": 66955,
        "meta_element_set_no": 999,
        "meta_rev_at_epoch": 7,
        "meta_bstar": 3.470494e-06,
        "meta_mean_motion_dot": 2e-07,
        "meta_mean_motion_ddot": 0,
        "tle_line1": "1 66955U 25287C   25343.41133017  .00000020  00000+0  34705-5 0  9997",
        "tle_line2": "2 66955  86.4914 347.3632 0007632 209.8722 150.2003 13.69296672    70"
      },
      "geometry": {
        "type": "Point",
        "coordinates": [
          168.0249873576561,
          -17.428456234451588
        ]
      }
    },
    {
      "type": "Feature",
      "properties": {
        "norad_id": 66956,
        "name": "HULIANWANG DIGUI 15D",
        "group": "last-30-days",
        "lat": -18.0675635007374,
        "lon": 168.07665005796085,
        "alt_km": 1001.5112067743921,
        "timestamp": "2025-12-10T14:53:35.947931+00:00",
        "meta_object_name": "HULIANWANG DIGUI 15D",
        "meta_object_id": "2025-287D",
        "meta_epoch": "2025-12-10T06:54:53.091072",
        "meta_mean_motion": 13.69398776,
        "meta_eccentricity": 0.00070637,
        "meta_inclination": 86.4971,
        "meta_ra_of_asc_node": 347.053,
        "meta_arg_of_pericenter": 199.9716,
        "meta_mean_anomaly": 160.1168,
        "meta_ephemeris_type": 0,
        "meta_classification_type": "U",
        "meta_norad_cat_id": 66956,
        "meta_element_set_no": 999,
        "meta_rev_at_epoch": 19,
        "meta_bstar": 9.668117e-06,
        "meta_mean_motion_dot": 2.5e-07,
        "meta_mean_motion_ddot": 0,
        "tle_line1": "1 66956U 25287D   25344.28811448  .00000025  00000+0  96681-5 0  9991",
        "tle_line2": "2 66956  86.4971 347.0530 0007063 199.9716 160.1168 13.69398776   191"
      },
      "geometry": {
        "type": "Point",
        "coordinates": [
          168.07665005796085,
          -18.0675635007374
        ]
      }
    },
    {
      "type": "Feature",
      "properties": {
        "norad_id": 66957,
        "name": "HULIANWANG DIGUI 15E",
        "group": "last-30-days",
        "lat": -18.718489929541036,
        "lon": 168.11929457159243,
        "alt_km": 1001.30354484685,
        "timestamp": "2025-12-10T14:53:35.947940+00:00",
        "meta_object_name": "HULIANWANG DIGUI 15E",
        "meta_object_id": "2025-287E",
        "meta_epoch": "2025-12-10T06:54:44.091648",
        "meta_mean_motion": 13.69509093,
        "meta_eccentricity": 0.00068937,
        "meta_inclination": 86.4941,
        "meta_ra_of_asc_node": 347.0505,
        "meta_arg_of_pericenter": 197.7318,
        "meta_mean_anomaly": 162.3602,
        "meta_ephemeris_type": 0,
        "meta_classification_type": "U",
        "meta_norad_cat_id": 66957,
        "meta_element_set_no": 999,
        "meta_rev_at_epoch": 19,
        "meta_bstar": -0.00019855955,
        "meta_mean_motion_dot": -1.56e-06,
        "meta_mean_motion_ddot": 0,
        "tle_line1": "1 66957U 25287E   25344.28801032 -.00000156  00000+0 -19856-3 0  9994",
        "tle_line2": "2 66957  86.4941 347.0505 0006893 197.7318 162.3602 13.69509093   198"
      },
      "geometry": {
        "type": "Point",
        "coordinates": [
          168.11929457159243,
          -18.718489929541036
        ]
      }
    },
    {
      "type": "Feature",
      "properties": {
        "norad_id": 66958,
        "name": "CZ-6A R/B",
        "group": "last-30-days",
        "lat": -10.707151347852399,
        "lon": -13.755404901604793,
        "alt_km": 953.0692566534944,
        "timestamp": "2025-12-10T14:53:35.947949+00:00",
        "meta_object_name": "CZ-6A R/B",
        "meta_object_id": "2025-287F",
        "meta_epoch": "2025-12-10T06:20:13.635744",
        "meta_mean_motion": 13.94918883,
        "meta_eccentricity": 0.01071678,
        "meta_inclination": 86.5058,
        "meta_ra_of_asc_node": 347.042,
        "meta_arg_of_pericenter": 109.571,
        "meta_mean_anomaly": 251.7073,
        "meta_ephemeris_type": 0,
        "meta_classification_type": "U",
        "meta_norad_cat_id": 66958,
        "meta_element_set_no": 999,
        "meta_rev_at_epoch": 19,
        "meta_bstar": 0.00083680097,
        "meta_mean_motion_dot": 1.198e-05,
        "meta_mean_motion_ddot": 0,
        "tle_line1": "1 66958U 25287F   25344.26404671  .00001198  00000+0  83680-3 0  9992",
        "tle_line2": "2 66958  86.5058 347.0420 0107167 109.5710 251.7073 13.94918883   192"
      },
      "geometry": {
        "type": "Point",
        "coordinates": [
          -13.755404901604793,
          -10.707151347852399
        ]
      }
    },
    {
      "type": "Feature",
      "properties": {
        "norad_id": 66988,
        "name": "YAOGAN-47",
        "group": "last-30-days",
        "lat": -82.30554413899837,
        "lon": 127.84768510322546,
        "alt_km": 476.0994137147354,
        "timestamp": "2025-12-10T14:53:35.947974+00:00",
        "meta_object_name": "YAOGAN-47",
        "meta_object_id": "2025-289A",
        "meta_epoch": "2025-12-09T22:00:55.912320",
        "meta_mean_motion": 15.30229903,
        "meta_eccentricity": 0.0009314,
        "meta_inclination": 97.526,
        "meta_ra_of_asc_node": 49.027,
        "meta_arg_of_pericenter": 269.0929,
        "meta_mean_anomaly": 90.9244,
        "meta_ephemeris_type": 0,
        "meta_classification_type": "U",
        "meta_norad_cat_id": 66988,
        "meta_element_set_no": 999,
        "meta_rev_at_epoch": 11,
        "meta_bstar": 0.00026830768,
        "meta_mean_motion_dot": 7.778e-05,
        "meta_mean_motion_ddot": 0,
        "tle_line1": "1 66988U 25289A   25343.91731380  .00007778  00000+0  26831-3 0  9993",
        "tle_line2": "2 66988  97.5260  49.0270 0009314 269.0929  90.9244 15.30229903   118"
      },
      "geometry": {
        "type": "Point",
        "coordinates": [
          127.84768510322546,
          -82.30554413899837
        ]
      }
    }
  ]
}